{"spkid": "20868895", "covariance": {"epoch": "2459092.5", "data": [["9.574044204275332E-16", "-1.357794693701568E-15", "5.700548800993247E-14", "7.748784556908889E-14", "2.171446145547133E-14", "3.279493841621407E-14"], ["-1.357794693701568E-15", "1.937260668159287E-15", "-1.178900094196438E-13", "-1.100603528361E-13", "-4.596026292064055E-14", "-4.953024773773538E-14"], ["5.700548800993247E-14", "-1.178900094196438E-13", "1.984269290206823E-10", "6.946564575596802E-12", "1.039878511707831E-10", "2.758132725620711E-11"], ["7.748784556908889E-14", "-1.100603528361E-13", "6.946564575596802E-12", "7.811918005390986E-11", "-6.044545184988055E-11", "2.411813565544981E-11"], ["2.171446145547133E-14", "-4.596026292064055E-14", "1.039878511707831E-10", "-6.044545184988055E-11", "1.239481272978119E-10", "-6.6987482225183E-12"], ["3.279493841621407E-14", "-4.953024773773538E-14", "2.758132725620711E-11", "2.411813565544981E-11", "-6.6987482225183E-12", "5.856122544295422E-11"]], "elements": [{"label": "e", "sigma": 3.09419524339938e-08, "name": "e", "value": ".3280921775252127", "title": "eccentricity", "units": null}, {"label": "q", "name": "q", "sigma": 4.40143234431621e-08, "units": "au", "title": "perihelion distance", "value": ".9659461979994212"}, {"label": "tp", "sigma": 1.40864093728914e-05, "name": "tp", "value": "2458961.053703906980", "title": "time of perihelion passage", "units": "TDB"}, {"sigma": 8.83850553283245e-06, "name": "om", "value": "214.1403547958029", "title": "longitude of the ascending node", "units": "deg", "label": "node"}, {"label": "peri", "sigma": 1.11331993289356e-05, "name": "w", "units": "deg", "value": "145.8081842197241", "title": "argument of perihelion"}, {"title": "inclination", "value": "23.78981851609195", "units": "deg", "name": "i", "sigma": 7.65253065612639e-06, "label": "i"}], "labels": ["e", "q", "tp", "node", "peri", "i"]}, "elements": [{"units": null, "title": "eccentricity", "value": ".3284598732641049", "name": "e", "sigma": "3.1152E-8", "label": "e"}, {"label": "a", "units": "au", "title": "semi-major axis", "value": "1.438267010901819", "sigma": "5.2945E-9", "name": "a"}, {"label": "q", "value": ".9658540107810648", "title": "perihelion distance", "units": "au", "name": "q", "sigma": "4.3981E-8"}, {"name": "i", "sigma": "7.6533E-6", "value": "23.78992627028126", "title": "inclination; angle with respect to x-y ecliptic plane", "units": "deg", "label": "i"}, {"units": "deg", "title": "longitude of the ascending node", "value": "214.1090464810431", "sigma": "8.8386E-6", "name": "om", "label": "node"}, {"label": "peri", "units": "deg", "title": "argument of perihelion", "value": "145.8754590408687", "sigma": "1.11E-5", "name": "w"}, {"title": "mean anomaly", "value": "200.0963066036304", "units": "deg", "name": "ma", "sigma": "5.3857E-6", "label": "M"}, {"name": "tp", "sigma": "9.7731E-6", "units": "TDB", "title": "time of perihelion passage", "value": "2461480.342518108587", "label": "tp"}, {"label": "period", "name": "per", "sigma": "3.4789E-6", "title": "sidereal orbital period", "value": "630.0248879765928", "units": "d"}, {"sigma": "3.1552E-9", "name": "n", "title": "mean motion", "value": ".5714059981918921", "units": "deg/d", "label": "n"}, {"title": "aphelion distance", "value": "1.910680011022574", "units": "au", "name": "ad", "sigma": "7.0336E-9", "label": "Q"}], "epoch": "2461200.5"}